{
"type": "FeatureCollection",
"name": "class_vi_wells",
"crs": { "type": "name", "properties": { "name": "urn:ogc:def:crs:OGC:1.3:CRS84" } },
"features": [
{ "type": "Feature", "properties": { "name": "ADM Decatur (IL-003-6A001)", "state": "IL", "status": "Active", "operator": "Archer Daniels Midland", "lat": 39.843, "lon": -88.945, "formation": "Mt. Simon Sandstone", "source": "EPA Region 5" }, "geometry": { "type": "Point", "coordinates": [ -88.945, 39.843 ] } },
{ "type": "Feature", "properties": { "name": "ADM Decatur Well 2 (IL-003-6A002)", "state": "IL", "status": "Active", "operator": "Archer Daniels Midland", "lat": 39.842, "lon": -88.946, "formation": "Mt. Simon Sandstone", "source": "EPA Region 5" }, "geometry": { "type": "Point", "coordinates": [ -88.946, 39.842 ] } },
{ "type": "Feature", "properties": { "name": "Red Trail Energy", "state": "ND", "status": "Approved", "operator": "Red Trail Energy", "lat": 46.876, "lon": -102.789, "formation": "Broom Creek", "source": "ND NDIC" }, "geometry": { "type": "Point", "coordinates": [ -102.789, 46.876 ] } },
{ "type": "Feature", "properties": { "name": "Project Tundra (Milton R. Young)", "state": "ND", "status": "Pending", "operator": "Minnkota Power", "lat": 47.542, "lon": -101.36, "formation": "Broom Creek/Deadwood", "source": "ND NDIC" }, "geometry": { "type": "Point", "coordinates": [ -101.36, 47.542 ] } },
{ "type": "Feature", "properties": { "name": "Bayou Bend CCS (Hackberry)", "state": "LA", "status": "Pending", "operator": "TotalEnergies/Chevron/Equinor", "lat": 30.0, "lon": -93.35, "formation": "Hackberry Formation", "source": "LA LDNR" }, "geometry": { "type": "Point", "coordinates": [ -93.35, 30.0 ] } },
{ "type": "Feature", "properties": { "name": "Cameron LNG CCS", "state": "LA", "status": "Pending", "operator": "Sempra/RWE", "lat": 29.78, "lon": -93.33, "formation": "Gulf Coast Miocene", "source": "LA LDNR" }, "geometry": { "type": "Point", "coordinates": [ -93.33, 29.78 ] } },
{ "type": "Feature", "properties": { "name": "Calcasieu Pass CCS", "state": "LA", "status": "Pending", "operator": "Venture Global", "lat": 29.8, "lon": -93.36, "formation": "Gulf Coast Saline", "source": "LA LDNR" }, "geometry": { "type": "Point", "coordinates": [ -93.36, 29.8 ] } },
{ "type": "Feature", "properties": { "name": "Lake Charles CCS", "state": "LA", "status": "Pending", "operator": "Driftwood LNG", "lat": 30.23, "lon": -93.22, "formation": "Gulf Coast Saline", "source": "LA LDNR" }, "geometry": { "type": "Point", "coordinates": [ -93.22, 30.23 ] } },
{ "type": "Feature", "properties": { "name": "Dry Fork Station CCS", "state": "WY", "status": "Pending", "operator": "Basin Electric", "lat": 44.77, "lon": -106.38, "formation": "Madison Limestone", "source": "WY DEQ" }, "geometry": { "type": "Point", "coordinates": [ -106.38, 44.77 ] } },
{ "type": "Feature", "properties": { "name": "ExxonMobil Baytown CCS", "state": "TX", "status": "Pending", "operator": "ExxonMobil", "lat": 29.77, "lon": -95.01, "formation": "Gulf Coast Miocene", "source": "EPA Region 6" }, "geometry": { "type": "Point", "coordinates": [ -95.01, 29.77 ] } },
{ "type": "Feature", "properties": { "name": "Occidental Direct Air Capture (Stratos)", "state": "TX", "status": "Pending", "operator": "1PointFive/Occidental", "lat": 31.85, "lon": -103.5, "formation": "Permian Basin", "source": "EPA Region 6" }, "geometry": { "type": "Point", "coordinates": [ -103.5, 31.85 ] } },
{ "type": "Feature", "properties": { "name": "Port Arthur CCS Hub", "state": "TX", "status": "Pending", "operator": "Chevron/Talos", "lat": 29.87, "lon": -93.93, "formation": "Gulf Coast Saline", "source": "EPA Region 6" }, "geometry": { "type": "Point", "coordinates": [ -93.93, 29.87 ] } },
{ "type": "Feature", "properties": { "name": "Freeport LNG CCS", "state": "TX", "status": "Pending", "operator": "Freeport LNG", "lat": 28.95, "lon": -95.31, "formation": "Gulf Coast Saline", "source": "EPA Region 6" }, "geometry": { "type": "Point", "coordinates": [ -95.31, 28.95 ] } },
{ "type": "Feature", "properties": { "name": "Kemper County CCS", "state": "MS", "status": "Pending", "operator": "Mississippi Power", "lat": 32.6, "lon": -88.8, "formation": "Lower Tuscaloosa", "source": "EPA Region 4" }, "geometry": { "type": "Point", "coordinates": [ -88.8, 32.6 ] } },
{ "type": "Feature", "properties": { "name": "Elk Hills CCS", "state": "CA", "status": "Pending", "operator": "California Resources Corp", "lat": 35.29, "lon": -119.48, "formation": "Stevens/Monterey", "source": "EPA Region 9" }, "geometry": { "type": "Point", "coordinates": [ -119.48, 35.29 ] } },
{ "type": "Feature", "properties": { "name": "Mountaineer CCS", "state": "WV", "status": "Approved (suspended)", "operator": "AEP/Battelle", "lat": 38.95, "lon": -81.93, "formation": "Rose Run/Copper Ridge", "source": "EPA Region 3" }, "geometry": { "type": "Point", "coordinates": [ -81.93, 38.95 ] } },
{ "type": "Feature", "properties": { "name": "Summit Carbon IA Hub", "state": "IA", "status": "Pending", "operator": "Summit Carbon Solutions", "lat": 42.5, "lon": -94.0, "formation": "Jordan Sandstone", "source": "EPA Region 7" }, "geometry": { "type": "Point", "coordinates": [ -94.0, 42.5 ] } },
{ "type": "Feature", "properties": { "name": "Intermountain Power CCS", "state": "UT", "status": "Pending", "operator": "IPP Renewed", "lat": 38.65, "lon": -112.58, "formation": "Navajo Sandstone", "source": "EPA Region 8" }, "geometry": { "type": "Point", "coordinates": [ -112.58, 38.65 ] } },
{ "type": "Feature", "properties": { "name": "Plant Barry CCS", "state": "AL", "status": "Completed (pilot)", "operator": "Southern Company/SECARB", "lat": 31.01, "lon": -87.95, "formation": "Paluxy Formation", "source": "EPA Region 4" }, "geometry": { "type": "Point", "coordinates": [ -87.95, 31.01 ] } },
{ "type": "Feature", "properties": { "name": "Coffeyville CCS", "state": "KS", "status": "Pending", "operator": "CVR Partners", "lat": 37.04, "lon": -95.61, "formation": "Arbuckle Group", "source": "EPA Region 7" }, "geometry": { "type": "Point", "coordinates": [ -95.61, 37.04 ] } }
]
}
