{
"type": "FeatureCollection",
"name": "co2_pipelines",
"crs": { "type": "name", "properties": { "name": "urn:ogc:def:crs:OGC:1.3:CRS84" } },
"features": [
{ "type": "Feature", "properties": { "name": "Cortez Pipeline", "operator": "Kinder Morgan", "miles": 504 }, "geometry": { "type": "LineString", "coordinates": [ [ -108.5, 37.3 ], [ -107.5, 36.8 ], [ -106.0, 35.5 ], [ -104.5, 34.5 ], [ -103.5, 33.5 ], [ -103.0, 32.9 ] ] } },
{ "type": "Feature", "properties": { "name": "Sheep Mountain Pipeline", "operator": "Occidental", "miles": 410 }, "geometry": { "type": "LineString", "coordinates": [ [ -106.5, 37.8 ], [ -106.0, 36.5 ], [ -105.0, 35.5 ], [ -104.0, 34.0 ], [ -103.2, 33.0 ], [ -102.5, 32.0 ] ] } },
{ "type": "Feature", "properties": { "name": "Bravo Pipeline", "operator": "Occidental", "miles": 218 }, "geometry": { "type": "LineString", "coordinates": [ [ -104.0, 36.2 ], [ -103.5, 35.0 ], [ -103.0, 34.0 ], [ -102.5, 32.5 ] ] } },
{ "type": "Feature", "properties": { "name": "Canyon Reef Carriers", "operator": "Kinder Morgan", "miles": 139 }, "geometry": { "type": "LineString", "coordinates": [ [ -101.0, 32.7 ], [ -100.5, 32.3 ], [ -100.0, 31.8 ], [ -99.5, 31.3 ] ] } },
{ "type": "Feature", "properties": { "name": "Val Verde Pipeline", "operator": "Various", "miles": 85 }, "geometry": { "type": "LineString", "coordinates": [ [ -101.5, 30.5 ], [ -101.0, 30.3 ], [ -100.5, 30.0 ] ] } },
{ "type": "Feature", "properties": { "name": "Centerline Pipeline", "operator": "Kinder Morgan", "miles": 115 }, "geometry": { "type": "LineString", "coordinates": [ [ -102.8, 32.8 ], [ -102.5, 32.2 ], [ -102.0, 31.5 ], [ -101.5, 31.0 ] ] } },
{ "type": "Feature", "properties": { "name": "NEJD Pipeline", "operator": "Denbury", "miles": 183 }, "geometry": { "type": "LineString", "coordinates": [ [ -90.2, 32.3 ], [ -91.0, 31.5 ], [ -92.0, 31.0 ], [ -93.0, 30.5 ], [ -93.9, 29.9 ] ] } },
{ "type": "Feature", "properties": { "name": "Green Pipeline", "operator": "Denbury", "miles": 325 }, "geometry": { "type": "LineString", "coordinates": [ [ -89.8, 31.5 ], [ -90.5, 31.0 ], [ -91.5, 30.5 ], [ -92.5, 30.2 ], [ -93.5, 30.0 ], [ -94.5, 29.6 ], [ -95.1, 29.5 ] ] } },
{ "type": "Feature", "properties": { "name": "Delta Pipeline", "operator": "Denbury", "miles": 85 }, "geometry": { "type": "LineString", "coordinates": [ [ -91.5, 32.4 ], [ -90.8, 32.5 ], [ -90.3, 32.6 ] ] } },
{ "type": "Feature", "properties": { "name": "Weyburn Pipeline (US)", "operator": "Dakota Gasification", "miles": 200 }, "geometry": { "type": "LineString", "coordinates": [ [ -101.8, 47.3 ], [ -102.5, 47.8 ], [ -103.5, 48.5 ], [ -104.0, 49.0 ] ] } },
{ "type": "Feature", "properties": { "name": "Petro Source Pipeline", "operator": "Petro Source", "miles": 60 }, "geometry": { "type": "LineString", "coordinates": [ [ -102.0, 31.5 ], [ -101.5, 31.2 ], [ -101.0, 31.0 ] ] } },
{ "type": "Feature", "properties": { "name": "Decatur Pipeline", "operator": "ADM/Archer Daniels Midland", "miles": 1 }, "geometry": { "type": "LineString", "coordinates": [ [ -88.95, 39.85 ], [ -88.94, 39.84 ] ] } },
{ "type": "Feature", "properties": { "name": "Summit Carbon Solutions (proposed)", "operator": "Summit", "miles": 2000 }, "geometry": { "type": "LineString", "coordinates": [ [ -93.5, 42.0 ], [ -94.0, 42.5 ], [ -95.5, 43.0 ], [ -96.5, 43.5 ], [ -97.5, 44.0 ], [ -99.0, 45.0 ], [ -100.5, 46.0 ], [ -101.0, 47.0 ] ] } },
{ "type": "Feature", "properties": { "name": "Navigator Heartland Greenway (proposed)", "operator": "Navigator CO2", "miles": 1300 }, "geometry": { "type": "LineString", "coordinates": [ [ -89.5, 40.0 ], [ -90.0, 41.0 ], [ -91.5, 41.5 ], [ -93.0, 42.0 ], [ -95.0, 41.5 ], [ -96.5, 41.0 ], [ -97.5, 41.5 ], [ -98.0, 42.0 ] ] } }
]
}
