{
"type": "FeatureCollection",
"name": "saline_formations",
"crs": { "type": "name", "properties": { "name": "urn:ogc:def:crs:OGC:1.3:CRS84" } },
"features": [
{ "type": "Feature", "properties": { "name": "Gulf Coast Basin (TX/LA/MS/AL)", "type": "Saline + Depleted O&G", "storage_gt_co2": 500 }, "geometry": { "type": "Polygon", "coordinates": [ [ [ -98.0, 26.0 ], [ -98.0, 31.0 ], [ -95.0, 33.0 ], [ -91.0, 33.0 ], [ -88.0, 31.5 ], [ -87.5, 30.5 ], [ -88.0, 29.0 ], [ -90.0, 28.5 ], [ -93.0, 28.5 ], [ -97.0, 26.5 ], [ -98.0, 26.0 ] ] ] } },
{ "type": "Feature", "properties": { "name": "Illinois Basin (IL/IN/KY)", "type": "Saline (Mt. Simon Sandstone)", "storage_gt_co2": 150 }, "geometry": { "type": "Polygon", "coordinates": [ [ [ -90.5, 37.0 ], [ -90.0, 39.5 ], [ -88.5, 40.5 ], [ -87.0, 40.5 ], [ -86.5, 39.5 ], [ -86.5, 38.0 ], [ -87.5, 37.0 ], [ -89.0, 36.8 ], [ -90.5, 37.0 ] ] ] } },
{ "type": "Feature", "properties": { "name": "Williston Basin (ND/MT/SD)", "type": "Saline + Depleted O&G (Bakken)", "storage_gt_co2": 200 }, "geometry": { "type": "Polygon", "coordinates": [ [ [ -106.0, 46.0 ], [ -106.0, 49.0 ], [ -102.0, 49.0 ], [ -100.0, 48.0 ], [ -99.0, 46.5 ], [ -100.0, 45.5 ], [ -103.0, 45.0 ], [ -106.0, 46.0 ] ] ] } },
{ "type": "Feature", "properties": { "name": "Permian Basin (TX/NM)", "type": "Saline + Depleted O&G", "storage_gt_co2": 100 }, "geometry": { "type": "Polygon", "coordinates": [ [ [ -105.0, 30.5 ], [ -105.0, 33.5 ], [ -102.5, 34.0 ], [ -100.0, 33.0 ], [ -100.0, 30.5 ], [ -102.0, 30.0 ], [ -105.0, 30.5 ] ] ] } },
{ "type": "Feature", "properties": { "name": "Appalachian Basin (WV/PA/OH/KY)", "type": "Saline (Oriskany/Clinton/Medina)", "storage_gt_co2": 50 }, "geometry": { "type": "Polygon", "coordinates": [ [ [ -84.0, 36.5 ], [ -82.0, 37.0 ], [ -80.0, 38.0 ], [ -79.0, 40.0 ], [ -78.0, 42.0 ], [ -77.0, 42.5 ], [ -77.5, 41.5 ], [ -79.0, 39.5 ], [ -80.5, 38.0 ], [ -82.5, 37.0 ], [ -84.0, 36.5 ] ] ] } },
{ "type": "Feature", "properties": { "name": "Michigan Basin (MI)", "type": "Saline (Mt. Simon)", "storage_gt_co2": 40 }, "geometry": { "type": "Polygon", "coordinates": [ [ [ -87.0, 42.0 ], [ -86.5, 44.0 ], [ -85.0, 45.5 ], [ -83.5, 45.0 ], [ -83.0, 43.5 ], [ -83.5, 42.0 ], [ -85.0, 41.5 ], [ -87.0, 42.0 ] ] ] } },
{ "type": "Feature", "properties": { "name": "Denver-Julesburg Basin (CO/WY/NE)", "type": "Saline + Depleted O&G", "storage_gt_co2": 30 }, "geometry": { "type": "Polygon", "coordinates": [ [ [ -106.0, 39.0 ], [ -105.5, 41.5 ], [ -104.0, 43.0 ], [ -102.0, 42.0 ], [ -101.5, 40.5 ], [ -103.0, 38.5 ], [ -106.0, 39.0 ] ] ] } },
{ "type": "Feature", "properties": { "name": "Powder River Basin (WY/MT)", "type": "Saline + Coal seams", "storage_gt_co2": 25 }, "geometry": { "type": "Polygon", "coordinates": [ [ [ -108.0, 43.0 ], [ -108.0, 46.0 ], [ -105.5, 46.0 ], [ -105.0, 44.5 ], [ -105.5, 43.0 ], [ -108.0, 43.0 ] ] ] } },
{ "type": "Feature", "properties": { "name": "San Joaquin Basin (CA)", "type": "Saline + Depleted O&G", "storage_gt_co2": 20 }, "geometry": { "type": "Polygon", "coordinates": [ [ [ -121.5, 35.0 ], [ -121.0, 37.5 ], [ -119.5, 37.8 ], [ -118.5, 36.0 ], [ -119.0, 35.0 ], [ -121.5, 35.0 ] ] ] } },
{ "type": "Feature", "properties": { "name": "Anadarko Basin (OK/TX/KS)", "type": "Saline + Depleted O&G", "storage_gt_co2": 60 }, "geometry": { "type": "Polygon", "coordinates": [ [ [ -101.0, 34.5 ], [ -100.0, 37.0 ], [ -98.0, 37.5 ], [ -97.0, 36.5 ], [ -97.0, 35.0 ], [ -99.0, 34.5 ], [ -101.0, 34.5 ] ] ] } }
]
}
